{
    "links": {
        "self": "http://www.neowsapp.com/rest/v1/neo/3621022?api_key=iIulBulltgU6a56xZRHN4H3l9WmuAYTsLGpBGhQ2"
    },
    "id": "3621022",
    "neo_reference_id": "3621022",
    "name": "(2012 XN134)",
    "designation": "2012 XN134",
    "nasa_jpl_url": "http://ssd.jpl.nasa.gov/sbdb.cgi?sstr=3621022",
    "absolute_magnitude_h": 27.7,
    "estimated_diameter": {
        "kilometers": {
            "estimated_diameter_min": 0.0076657557,
            "estimated_diameter_max": 0.0171411509
        },
        "meters": {
            "estimated_diameter_min": 7.6657557353,
            "estimated_diameter_max": 17.1411509231
        },
        "miles": {
            "estimated_diameter_min": 0.0047632783,
            "estimated_diameter_max": 0.0106510141
        },
        "feet": {
            "estimated_diameter_min": 25.1501180466,
            "estimated_diameter_max": 56.2373735944
        }
    },
    "is_potentially_hazardous_asteroid": false,
    "close_approach_data": [
        {
            "close_approach_date": "2012-12-13",
            "close_approach_date_full": "2012-Dec-13 11:01",
            "epoch_date_close_approach": 1355396460000,
            "relative_velocity": {
                "kilometers_per_second": "7.1055988746",
                "kilometers_per_hour": "25580.155948528",
                "miles_per_hour": "15894.5141225729"
            },
            "miss_distance": {
                "astronomical": "0.0118055694",
                "lunar": "4.5923664966",
                "kilometers": "1766088.036377178",
                "miles": "1097396.2188659364"
            },
            "orbiting_body": "Earth"
        }
    ],
    "orbital_data": {
        "orbit_id": "5",
        "orbit_determination_date": "2017-04-06 08:47:35",
        "first_observation_date": "2012-12-13",
        "last_observation_date": "2012-12-15",
        "data_arc_in_days": 2,
        "observations_used": 31,
        "orbit_uncertainty": "7",
        "minimum_orbit_intersection": ".0147617",
        "jupiter_tisserand_invariant": "3.715",
        "epoch_osculation": "2459000.5",
        "eccentricity": ".4924601323667998",
        "semi_major_axis": "1.963238909376343",
        "inclination": "5.299576140160371",
        "ascending_node_longitude": "84.01783292324768",
        "orbital_period": "1004.750326468644",
        "perihelion_distance": ".9964220161972174",
        "perihelion_argument": "351.1480676587332",
        "aphelion_distance": "2.930055802555468",
        "perihelion_time": "2459282.013571922347",
        "mean_anomaly": "259.1342593057542",
        "mean_motion": ".3582979676804661",
        "equinox": "J2000",
        "orbit_class": {
            "orbit_class_type": "APO",
            "orbit_class_description": "Near-Earth asteroid orbits which cross the Earth’s orbit similar to that of 1862 Apollo",
            "orbit_class_range": "a (semi-major axis) > 1.0 AU; q (perihelion) < 1.017 AU"
        }
    },
    "is_sentry_object": false
}